SENTINEL-5P             
1 42969U 17064A   26192.80146014  .00000008  00000+0  24611-4 0  9997
2 42969  98.7929 134.7584 0001112  92.2595 267.8708 14.19522945453052
